{"type": "FeatureCollection", "features": [ {"type": "Feature", "properties": {"norad_id": 35605, "name": "COSMOS 2251 DEB", "group": "cosmos-2251-debris", "lat": 49.96761081533387, "lon": -28.209429883020448, "alt_km": 459.57906234396887, "timestamp": "2025-12-24T05:51:20.005763+00:00", "meta": {"OBJECT_NAME": "COSMOS 2251 DEB", "OBJECT_ID": "1993-036AMY", "EPOCH": "2025-12-22T14:36:44.008416", "MEAN_MOTION": 15.38179315, "ECCENTRICITY": 0.00228045, "INCLINATION": 73.869, "RA_OF_ASC_NODE": 315.1978, "ARG_OF_PERICENTER": 235.9327, "MEAN_ANOMALY": 123.9715, "EPHEMERIS_TYPE": 0, "CLASSIFICATION_TYPE": "U", "NORAD_CAT_ID": 35605, "ELEMENT_SET_NO": 999, "REV_AT_EPOCH": 66123, "BSTAR": 0.0066900453, "MEAN_MOTION_DOT": 0.00262511, "MEAN_MOTION_DDOT": 0}, "tle": {"line1": "1 35605U 93036AMY 25356.60884269  .00262511  00000+0  66900-2 0  9993", "line2": "2 35605  73.8690 315.1978 0022804 235.9327 123.9715 15.38179315661234"}}, "geometry": {"type": "Point", "coordinates": [-28.209429883020448, 49.96761081533387]}}, {"type": "Feature", "properties": {"norad_id": 35606, "name": "COSMOS 2251 DEB", "group": "cosmos-2251-debris", "lat": -60.6994371203605, "lon": -38.71658540788393, "alt_km": 1145.6985251608476, "timestamp": "2025-12-24T05:51:20.005772+00:00", "meta": {"OBJECT_NAME": "COSMOS 2251 DEB", "OBJECT_ID": "1993-036AMZ", "EPOCH": "2025-12-23T17:40:03.776448", "MEAN_MOTION": 13.41219482, "ECCENTRICITY": 0.0456715, "INCLINATION": 73.8099, "RA_OF_ASC_NODE": 353.2688, "ARG_OF_PERICENTER": 197.3533, "MEAN_ANOMALY": 161.1513, "EPHEMERIS_TYPE": 0, "CLASSIFICATION_TYPE": "U", "NORAD_CAT_ID": 35606, "ELEMENT_SET_NO": 999, "REV_AT_EPOCH": 61187, "BSTAR": 0.00021068754, "MEAN_MOTION_DOT": 1.94e-06, "MEAN_MOTION_DDOT": 0}, "tle": {"line1": "1 35606U 93036AMZ 25357.73615482  .00000194  00000+0  21069-3 0  9993", "line2": "2 35606  73.8099 353.2688 0456715 197.3533 161.1513 13.41219482611878"}}, "geometry": {"type": "Point", "coordinates": [-38.71658540788393, -60.6994371203605]}}, {"type": "Feature", "properties": {"norad_id": 35611, "name": "COSMOS 2251 DEB", "group": "cosmos-2251-debris", "lat": 67.3100551799286, "lon": -66.397460707247, "alt_km": 652.1797530416297, "timestamp": "2025-12-24T05:51:20.005782+00:00", "meta": {"OBJECT_NAME": "COSMOS 2251 DEB", "OBJECT_ID": "1993-036ANE", "EPOCH": "2025-12-19T11:16:40.848672", "MEAN_MOTION": 14.73020971, "ECCENTRICITY": 0.0021353, "INCLINATION": 74.0189, "RA_OF_ASC_NODE": 166.1787, "ARG_OF_PERICENTER": 238.9125, "MEAN_ANOMALY": 120.9952, "EPHEMERIS_TYPE": 0, "CLASSIFICATION_TYPE": "U", "NORAD_CAT_ID": 35611, "ELEMENT_SET_NO": 999, "REV_AT_EPOCH": 87389, "BSTAR": 0.0015718, "MEAN_MOTION_DOT": 0.0001012, "MEAN_MOTION_DDOT": 0}, "tle": {"line1": "1 35611U 93036ANE 25353.46991723  .00010120  00000+0  15718-2 0  9993", "line2": "2 35611  74.0189 166.1787 0021353 238.9125 120.9952 14.73020971873894"}}, "geometry": {"type": "Point", "coordinates": [-66.397460707247, 67.3100551799286]}}, {"type": "Feature", "properties": {"norad_id": 35614, "name": "COSMOS 2251 DEB", "group": "cosmos-2251-debris", "lat": -18.599626199137486, "lon": -60.40118965541971, "alt_km": 727.8666837196979, "timestamp": "2025-12-24T05:51:20.005792+00:00", "meta": {"OBJECT_NAME": "COSMOS 2251 DEB", "OBJECT_ID": "1993-036ANH", "EPOCH": "2025-12-22T04:50:52.701504", "MEAN_MOTION": 14.67087782, "ECCENTRICITY": 0.00751415, "INCLINATION": 73.9595, "RA_OF_ASC_NODE": 309.1128, "ARG_OF_PERICENTER": 161.1452, "MEAN_ANOMALY": 199.2529, "EPHEMERIS_TYPE": 0, "CLASSIFICATION_TYPE": "U", "NORAD_CAT_ID": 35614, "ELEMENT_SET_NO": 999, "REV_AT_EPOCH": 87868, "BSTAR": 0.00075496675, "MEAN_MOTION_DOT": 4.392e-05, "MEAN_MOTION_DDOT": 0}, "tle": {"line1": "1 35614U 93036ANH 25356.20199886  .00004392  00000+0  75497-3 0  9996", "line2": "2 35614  73.9595 309.1128 0075141 161.1452 199.2529 14.67087782878685"}}, "geometry": {"type": "Point", "coordinates": [-60.40118965541971, -18.599626199137486]}}, {"type": "Feature", "properties": {"norad_id": 35645, "name": "COSMOS 2251 DEB", "group": "cosmos-2251-debris", "lat": -68.53179828705197, "lon": -66.81936389599525, "alt_km": 704.8539403881823, "timestamp": "2025-12-24T05:51:20.005802+00:00", "meta": {"OBJECT_NAME": "COSMOS 2251 DEB", "OBJECT_ID": "1993-036ANL", "EPOCH": "2025-12-22T04:30:54.667872", "MEAN_MOTION": 14.45706838, "ECCENTRICITY": 0.00697351, "INCLINATION": 73.9647, "RA_OF_ASC_NODE": 70.0342, "ARG_OF_PERICENTER": 226.6954, "MEAN_ANOMALY": 132.8377, "EPHEMERIS_TYPE": 0, "CLASSIFICATION_TYPE": "U", "NORAD_CAT_ID": 35645, "ELEMENT_SET_NO": 999, "REV_AT_EPOCH": 86908, "BSTAR": 0.0019389594, "MEAN_MOTION_DOT": 7.053e-05, "MEAN_MOTION_DDOT": 0}, "tle": {"line1": "1 35645U 93036ANL 25356.18813273  .00007053  00000+0  19390-2 0  9996", "line2": "2 35645  73.9647  70.0342 0069735 226.6954 132.8377 14.45706838869089"}}, "geometry": {"type": "Point", "coordinates": [-66.81936389599525, -68.53179828705197]}}, {"type": "Feature", "properties": {"norad_id": 35646, "name": "COSMOS 2251 DEB", "group": "cosmos-2251-debris", "lat": 17.311112188416256, "lon": -147.3994879274926, "alt_km": 776.7222209267338, "timestamp": "2025-12-24T05:51:20.005812+00:00", "meta": {"OBJECT_NAME": "COSMOS 2251 DEB", "OBJECT_ID": "1993-036ANM", "EPOCH": "2025-12-23T20:59:12.827328", "MEAN_MOTION": 13.40834479, "ECCENTRICITY": 0.04559366, "INCLINATION": 73.8714, "RA_OF_ASC_NODE": 38.3608, "ARG_OF_PERICENTER": 146.6647, "MEAN_ANOMALY": 30.7447, "EPHEMERIS_TYPE": 0, "CLASSIFICATION_TYPE": "U", "NORAD_CAT_ID": 35646, "ELEMENT_SET_NO": 999, "REV_AT_EPOCH": 82007, "BSTAR": 0.0004320819, "MEAN_MOTION_DOT": 4.2e-06, "MEAN_MOTION_DDOT": 0}, "tle": {"line1": "1 35646U 93036ANM 25357.87445402  .00000420  00000+0  43208-3 0  9996", "line2": "2 35646  73.8714  38.3608 0455936 146.6647  30.7447 13.40834479820075"}}, "geometry": {"type": "Point", "coordinates": [-147.3994879274926, 17.311112188416256]}}, {"type": "Feature", "properties": {"norad_id": 35647, "name": "COSMOS 2251 DEB", "group": "cosmos-2251-debris", "lat": -58.97065110800827, "lon": 121.60521599724176, "alt_km": 772.6491728526553, "timestamp": "2025-12-24T05:51:20.005823+00:00", "meta": {"OBJECT_NAME": "COSMOS 2251 DEB", "OBJECT_ID": "1993-036ANN", "EPOCH": "2025-12-23T12:06:04.483584", "MEAN_MOTION": 14.43686227, "ECCENTRICITY": 0.00461806, "INCLINATION": 74.0232, "RA_OF_ASC_NODE": 274.5399, "ARG_OF_PERICENTER": 11.2083, "MEAN_ANOMALY": 349.0091, "EPHEMERIS_TYPE": 0, "CLASSIFICATION_TYPE": "U", "NORAD_CAT_ID": 35647, "ELEMENT_SET_NO": 999, "REV_AT_EPOCH": 67819, "BSTAR": 0.00075636899, "MEAN_MOTION_DOT": 2.576e-05, "MEAN_MOTION_DDOT": 0}, "tle": {"line1": "1 35647U 93036ANN 25357.50421856  .00002576  00000+0  75637-3 0  9999", "line2": "2 35647  74.0232 274.5399 0046180  11.2083 349.0091 14.43686227678198"}}, "geometry": {"type": "Point", "coordinates": [121.60521599724176, -58.97065110800827]}}, {"type": "Feature", "properties": {"norad_id": 35650, "name": "COSMOS 2251 DEB", "group": "cosmos-2251-debris", "lat": -73.45566670072718, "lon": -78.26473394863339, "alt_km": 629.9002536815724, "timestamp": "2025-12-24T05:51:20.005833+00:00", "meta": {"OBJECT_NAME": "COSMOS 2251 DEB", "OBJECT_ID": "1993-036ANR", "EPOCH": "2025-12-23T18:04:13.056096", "MEAN_MOTION": 14.83898714, "ECCENTRICITY": 0.00150828, "INCLINATION": 74.0467, "RA_OF_ASC_NODE": 357.0673, "ARG_OF_PERICENTER": 39.8758, "MEAN_ANOMALY": 132.5495, "EPHEMERIS_TYPE": 0, "CLASSIFICATION_TYPE": "U", "NORAD_CAT_ID": 35650, "ELEMENT_SET_NO": 999, "REV_AT_EPOCH": 87797, "BSTAR": 0.0017492527, "MEAN_MOTION_DOT": 0.00014555, "MEAN_MOTION_DDOT": 0}, "tle": {"line1": "1 35650U 93036ANR 25357.75292889  .00014555  00000+0  17493-2 0  9997", "line2": "2 35650  74.0467 357.0673 0015082  39.8758 132.5495 14.83898714877976"}}, "geometry": {"type": "Point", "coordinates": [-78.26473394863339, -73.45566670072718]}}, {"type": "Feature", "properties": {"norad_id": 35660, "name": "COSMOS 2251 DEB", "group": "cosmos-2251-debris", "lat": -66.27804882376682, "lon": -27.7328850786961, "alt_km": 719.5497400882286, "timestamp": "2025-12-24T05:51:20.005843+00:00", "meta": {"OBJECT_NAME": "COSMOS 2251 DEB", "OBJECT_ID": "1993-036APB", "EPOCH": "2025-12-23T17:25:27.080832", "MEAN_MOTION": 14.49964406, "ECCENTRICITY": 0.00185636, "INCLINATION": 74.0421, "RA_OF_ASC_NODE": 112.6097, "ARG_OF_PERICENTER": 260.1497, "MEAN_ANOMALY": 169.4034, "EPHEMERIS_TYPE": 0, "CLASSIFICATION_TYPE": "U", "NORAD_CAT_ID": 35660, "ELEMENT_SET_NO": 999, "REV_AT_EPOCH": 66030, "BSTAR": 0.0004829615, "MEAN_MOTION_DOT": 1.846e-05, "MEAN_MOTION_DDOT": 0}, "tle": {"line1": "1 35660U 93036APB 25357.72600788  .00001846  00000+0  48296-3 0  9991", "line2": "2 35660  74.0421 112.6097 0018563 260.1497 169.4034 14.49964406660307"}}, "geometry": {"type": "Point", "coordinates": [-27.7328850786961, -66.27804882376682]}}, {"type": "Feature", "properties": {"norad_id": 35661, "name": "COSMOS 2251 DEB", "group": "cosmos-2251-debris", "lat": -30.55268381354339, "lon": 47.05348097195463, "alt_km": 673.598968513551, "timestamp": "2025-12-24T05:51:20.005852+00:00", "meta": {"OBJECT_NAME": "COSMOS 2251 DEB", "OBJECT_ID": "1993-036APC", "EPOCH": "2025-12-23T10:37:17.617728", "MEAN_MOTION": 14.86718624, "ECCENTRICITY": 0.00868669, "INCLINATION": 74.0127, "RA_OF_ASC_NODE": 58.3939, "ARG_OF_PERICENTER": 159.8507, "MEAN_ANOMALY": 200.6139, "EPHEMERIS_TYPE": 0, "CLASSIFICATION_TYPE": "U", "NORAD_CAT_ID": 35661, "ELEMENT_SET_NO": 999, "REV_AT_EPOCH": 88027, "BSTAR": 0.00075396446, "MEAN_MOTION_DOT": 7.154e-05, "MEAN_MOTION_DDOT": 0}, "tle": {"line1": "1 35661U 93036APC 25357.44256502  .00007154  00000+0  75396-3 0  9991", "line2": "2 35661  74.0127  58.3939 0086866 159.8507 200.6139 14.86718624880273"}}, "geometry": {"type": "Point", "coordinates": [47.05348097195463, -30.55268381354339]}}]}